NORAD_CAT_ID,OBJECT_NAME,OBJECT_TYPE,EPOCH,MEAN_MOTION,ECCENTRICITY,INCLINATION,RA_OF_ASC_NODE,ARG_OF_PERICENTER,MEAN_ANOMALY,BSTAR,MEAN_MOTION_DOT,MEAN_MOTION_DDOT,TLE_LINE0,TLE_LINE1,TLE_LINE2,SEMIMAJOR_AXIS,PERIOD,APOGEE,PERIGEE,DECAYED
55925.0,STARLINK-5922,PAYLOAD,2023-04-04 22:00:00,15.69892135,0.0003596,69.9975,130.0539,266.2119,279.4038,0.00058335,0.00070431,0.0,0 STARLINK-5922,1 55925U 23037M   23094.91667824  .00070431  00000-0  58335-3 0  9994,2 55925  69.9975 130.0539 0003596 266.2119 279.4038 15.69892135  1300,6737.343,91.726,361.63,356.785,0.0
55925.0,STARLINK-5922,PAYLOAD,2023-04-05 06:00:00,15.69943434,0.0003506,69.9984,129.1166,269.2024,359.7367,-0.0004465,-0.00053604,0.0,0 STARLINK-5922,1 55925U 23037M   23095.25001157 -.00053604  00000-0 -44650-3 0  9993,2 55925  69.9984 129.1166 0003506 269.2024 359.7367 15.69943434  3436,6737.196,91.723,361.423,356.699,0.0
55925.0,STARLINK-5922,PAYLOAD,2023-04-05 14:00:01,15.69928943,0.0003456,69.9986,128.1792,276.0269,76.257,-5.0484e-05,-6.28e-05,0.0,0 STARLINK-5922,1 55925U 23037M   23095.58334491 -.00006280  00000-0 -50484-4 0  9990,2 55925  69.9986 128.1792 0003456 276.0269  76.2570 15.69928943  1302,6737.237,91.724,361.431,356.774,0.0
55925.0,STARLINK-5922,PAYLOAD,2023-04-05 16:00:00,15.69963864,0.0003383,69.9987,127.9449,274.755,188.3543,-0.00075303,-0.00089944,0.0,0 STARLINK-5922,1 55925U 23037M   23095.66667824 -.00089944  00000-0 -75303-3 0  9992,2 55925  69.9987 127.9449 0003383 274.7550 188.3543 15.69963864  3494,6737.137,91.722,361.282,356.723,0.0
55925.0,STARLINK-5922,PAYLOAD,2023-04-05 22:00:00,15.69848253,0.0003443,69.9984,127.242,267.4021,168.2417,0.0011257,0.00136945,0.0,0 STARLINK-5922,1 55925U 23037M   23095.91667824  .00136945  00000-0  11257-2 0  9999,2 55925  69.9984 127.2420 0003443 267.4021 168.2417 15.69848253  1301,6737.468,91.729,361.653,357.013,0.0
55925.0,STARLINK-5922,PAYLOAD,2023-04-06 10:00:00,15.69880455,0.0003514,69.9992,125.8362,276.1835,104.4535,0.00058999,0.00071206,0.0,0 STARLINK-5922,1 55925U 23037M   23096.41667824  .00071206  00000-0  58999-3 0  9998,2 55925  69.9992 125.8362 0003514 276.1835 104.4535 15.69880455  3617,6737.376,91.727,361.609,356.874,0.0
55925.0,STARLINK-5922,PAYLOAD,2023-04-06 14:00:01,15.69918517,0.0003593,69.999,125.3674,276.7658,325.5794,0.00016877,0.00020125,0.0,0 STARLINK-5922,1 55925U 23037M   23096.58335648  .00020125  00000-0  16877-3 0  9995,2 55925  69.9990 125.3674 0003593 276.7658 325.5794 15.69918517  1300,6737.267,91.725,361.553,356.711,0.0
55925.0,STARLINK-5922,PAYLOAD,2023-04-06 22:00:00,15.69903108,0.0003507,69.9992,124.4303,270.9786,54.6551,0.00038841,0.00046711,0.0,0 STARLINK-5922,1 55925U 23037M   23096.91667824  .00046711  00000-0  38841-3 0  9990,2 55925  69.9992 124.4303 0003507 270.9786  54.6551 15.69903108  3699,6737.311,91.725,361.539,356.813,0.0
55925.0,STARLINK-5922,PAYLOAD,2023-04-07 14:00:01,15.6996831,0.000341,69.999,122.5558,277.361,214.9135,-0.00051795,-0.00062148,0.0,0 STARLINK-5922,1 55925U 23037M   23097.58334491 -.00062148  00000-0 -51795-3 0  9992,2 55925  69.9990 122.5558 0003410 277.3610 214.9135 15.69968310  3794,6737.125,91.722,361.287,356.692,0.0
55925.0,STARLINK-5922,PAYLOAD,2023-04-08 04:43:50,15.69917731,0.0004443,69.9988,120.83,278.8827,81.1865,7.7419e-05,9.105e-05,0.0,0 STARLINK-5922,1 55925U 23037M   23098.19711405  .00009105  00000-0  77419-4 0  9998,2 55925  69.9988 120.8300 0004443 278.8827  81.1865 15.69917731  3896,6737.269,91.725,362.128,356.141,0.0
55925.0,STARLINK-5922,PAYLOAD,2023-04-08 10:50:51,15.69929592,0.0003564,69.9988,120.1136,267.0184,93.0604,0.00022949,0.00027479,0.0,0 STARLINK-5922,1 55925U 23037M   23098.45197949  .00027479  00000-0  22949-3 0  9999,2 55925  69.9988 120.1136 0003564 267.0184  93.0604 15.69929592  3931,6737.235,91.724,361.502,356.699,0.0
55925.0,STARLINK-5922,PAYLOAD,2023-04-09 03:40:07,15.69937837,0.0003746,69.999,118.1424,266.8693,93.2074,0.00016322,0.00019471,0.0,0 STARLINK-5922,1 55925U 23037M   23099.15286124  .00019471  00000-0  16322-3 0  9992,2 55925  69.9990 118.1424 0003746 266.8693  93.2074 15.69937837  4042,6737.212,91.723,361.601,356.553,0.0
55925.0,STARLINK-5922,PAYLOAD,2023-04-09 09:47:07,15.69948441,0.0003591,69.9997,117.426,266.8933,93.1851,0.0002369,0.00028399,0.0,0 STARLINK-5922,1 55925U 23037M   23099.40772654  .00028399  00000-0  23690-3 0  9993,2 55925  69.9997 117.4260 0003591 266.8933  93.1851 15.69948441  3745,6737.182,91.723,361.466,356.627,0.0
55925.0,STARLINK-5922,PAYLOAD,2023-04-09 12:50:38,15.69935574,0.0002958,70.0001,117.0685,271.1188,88.9668,0.00015621,0.0001862,0.0,0 STARLINK-5922,1 55925U 23037M   23099.53516321  .00018620  00000-0  15621-3 0  9995,2 55925  70.0001 117.0685 0002958 271.1188  88.9668 15.69935574  4100,6737.218,91.724,361.076,357.09,0.0
55925.0,STARLINK-5922,PAYLOAD,2023-04-10 04:08:09,15.69929455,0.0003386,69.9997,115.2773,263.0485,97.0325,5.6266e-05,6.56e-05,0.0,0 STARLINK-5922,1 55925U 23037M   23100.17232961  .00006560  00000-0  56266-4 0  9994,2 55925  69.9997 115.2773 0003386 263.0485  97.0325 15.69929455  4208,6737.236,91.724,361.382,356.82,0.0
55925.0,STARLINK-5922,PAYLOAD,2023-04-10 13:18:40,15.69928635,0.0003511,69.9998,114.2022,262.8899,97.1898,5.7503e-05,6.708e-05,0.0,0 STARLINK-5922,1 55925U 23037M   23100.55463008  .00006708  00000-0  57503-4 0  9993,2 55925  69.9998 114.2022 0003511 262.8899  97.1898 15.69928635  3924,6737.238,91.724,361.469,356.738,0.0
55925.0,STARLINK-5922,PAYLOAD,2023-04-11 04:36:11,15.69926425,0.0003427,69.9997,112.4104,262.7562,97.3245,4.5755e-05,5.293e-05,0.0,0 STARLINK-5922,1 55925U 23037M   23101.19179852  .00005293  00000-0  45755-4 0  9999,2 55925  69.9997 112.4104 0003427 262.7562  97.3245 15.69926425  4368,6737.244,91.724,361.418,356.801,0.0
55925.0,STARLINK-5922,PAYLOAD,2023-04-11 12:15:01,15.69811744,0.0002368,70.0006,111.5158,279.2018,80.891,-0.00025835,-0.00031013,0.0,0 STARLINK-5922,1 55925U 23037M   23101.51043249 -.00031013  00000-0 -25835-3 0  9992,2 55925  70.0006 111.5158 0002368 279.2018  80.8910 15.69811744  4074,6737.573,91.731,361.033,357.842,0.0
55925.0,STARLINK-5922,PAYLOAD,2023-04-11 18:21:57,15.69950336,0.0002683,69.9999,110.7987,303.6004,56.4935,0.00011031,0.00013085,0.0,0 STARLINK-5922,1 55925U 23037M   23101.76525224  .00013085  00000-0  11031-3 0  9997,2 55925  69.9999 110.7987 0002683 303.6004  56.4935 15.69950336  4112,6737.176,91.723,360.849,357.234,0.0
55925.0,STARLINK-5922,PAYLOAD,2023-04-12 14:00:01,15.67547701,0.0003379,70.0002,108.5043,271.7788,25.2096,-0.0097265,-0.00962724,0.0,0 STARLINK-5922,1 55925U 23037M   23102.58334491 -.00962724  00000-0 -97265-2 0  9999,2 55925  70.0002 108.5043 0003379 271.7788  25.2096 15.67547701  4584,6744.059,91.863,368.202,363.645,0.0
55925.0,STARLINK-5922,PAYLOAD,2023-04-13 12:00:00,15.6573253,0.0003589,69.9999,105.94,274.7733,150.4942,-0.0099611,-0.00920149,0.0,0 STARLINK-5922,1 55925U 23037M   23103.50001157 -.00920149  00000-0 -99611-2 0  9994,2 55925  69.9999 105.9400 0003589 274.7733 150.4942 15.65732530  1302,6749.27,91.97,373.557,368.713,0.0
55925.0,STARLINK-5922,PAYLOAD,2023-04-14 14:00:01,15.63633868,0.0003635,69.9998,102.9177,274.4386,131.2173,-0.011362,-0.00961195,0.0,0 STARLINK-5922,1 55925U 23037M   23104.58335648 -.00961195  00000-0 -11362-1 0  9990,2 55925  69.9998 102.9177 0003635 274.4386 131.2173 15.63633868  1307,6755.308,92.093,379.628,374.717,0.0
55925.0,STARLINK-5922,PAYLOAD,2023-04-14 18:00:00,15.6324929,0.0003511,70.0,102.4537,268.7364,354.6538,-0.010331,-0.00869109,0.0,0 STARLINK-5922,1 55925U 23037M   23104.75001157 -.00869109  00000-0 -10331-1 0  9991,2 55925  70.0000 102.4537 0003511 268.7364 354.6538 15.63249290  4923,6756.415,92.116,380.653,375.908,0.0
55925.0,STARLINK-5922,PAYLOAD,2023-04-15 08:00:01,15.62105706,0.0003562,69.9997,100.8313,272.0803,31.9925,-0.01063,-0.00856245,0.0,0 STARLINK-5922,1 55925U 23037M   23105.33334491 -.00856245  00000-0 -10630-1 0  9995,2 55925  69.9997 100.8313 0003562 272.0803  31.9925 15.62105706  5019,6759.713,92.183,383.985,379.17,0.0
55925.0,STARLINK-5922,PAYLOAD,2023-04-15 14:00:01,15.61684132,0.0003463,69.9992,100.1365,270.2684,359.0616,-0.012479,-0.00976342,0.0,0 STARLINK-5922,1 55925U 23037M   23105.58334491 -.00976342  00000-0 -12479-1 0  9996,2 55925  69.9992 100.1365 0003463 270.2684 359.0616 15.61684132  1304,6760.929,92.208,385.135,380.453,0.0
55925.0,STARLINK-5922,PAYLOAD,2023-04-15 22:00:01,15.61000039,0.0003543,69.9994,99.2112,265.126,77.2891,-0.011789,-0.00905044,0.0,0 STARLINK-5922,1 55925U 23037M   23105.91668981 -.00905044  00000-0 -11789-1 0  9991,2 55925  69.9994  99.2112 0003543 265.1260  77.2891 15.61000039  1308,6762.904,92.249,387.165,382.373,0.0
55925.0,STARLINK-5922,PAYLOAD,2023-04-16 00:00:00,15.60868896,0.0003418,69.9997,98.9799,266.5981,183.8753,-0.012654,-0.00960797,0.0,0 STARLINK-5922,1 55925U 23037M   23106.00001157 -.00960797  00000-0 -12654-1 0  9996,2 55925  69.9997  98.9799 0003418 266.5981 183.8753 15.60868896  5110,6763.283,92.256,387.46,382.836,0.0
55925.0,STARLINK-5922,PAYLOAD,2023-04-16 10:00:00,15.60009712,0.0003355,69.9996,97.8247,269.8,0.6115,-0.012041,-0.00891051,0.0,0 STARLINK-5922,1 55925U 23037M   23106.41667824 -.00891051  00000-0 -12041-1 0  9996,2 55925  69.9996  97.8247 0003355 269.8000   0.6115 15.60009712  5182,6765.766,92.307,389.901,385.361,0.0
55925.0,STARLINK-5922,PAYLOAD,2023-04-16 22:00:00,15.59061808,0.0003507,69.9992,96.4406,264.1003,292.5931,-0.013108,-0.00931551,0.0,0 STARLINK-5922,1 55925U 23037M   23106.91667824 -.00931551  00000-0 -13108-1 0  9996,2 55925  69.9992  96.4406 0003507 264.1003 292.5931 15.59061808  1300,6768.508,92.363,392.747,387.999,0.0
55925.0,STARLINK-5922,PAYLOAD,2023-04-17 06:00:00,15.58350349,0.0003372,69.999,95.5189,269.7892,356.8186,-0.01227,-0.00855593,0.0,0 STARLINK-5922,1 55925U 23037M   23107.25001157 -.00855593  00000-0 -12270-1 0  9995,2 55925  69.9990  95.5189 0003372 269.7892 356.8186 15.58350349  5314,6770.568,92.405,394.716,390.15,0.0
